CCSDS_OMM_VERS,COMMENT,CREATION_DATE,ORIGINATOR,OBJECT_NAME,OBJECT_ID,CENTER_NAME,REF_FRAME,TIME_SYSTEM,MEAN_ELEMENT_THEORY,EPOCH,MEAN_MOTION,ECCENTRICITY,INCLINATION,RA_OF_ASC_NODE,ARG_OF_PERICENTER,MEAN_ANOMALY,EPHEMERIS_TYPE,CLASSIFICATION_TYPE,NORAD_CAT_ID,ELEMENT_SET_NO,REV_AT_EPOCH,BSTAR,MEAN_MOTION_DOT,MEAN_MOTION_DDOT,SEMIMAJOR_AXIS,PERIOD,APOAPSIS,PERIAPSIS,OBJECT_TYPE,RCS_SIZE,COUNTRY_CODE,LAUNCH_DATE,SITE,DECAY_DATE,FILE,GP_ID,TLE_LINE0,TLE_LINE1,TLE_LINE2
"2.0","GENERATED VIA SPACE-TRACK.ORG API","2020-12-08T14:46:10","18 SPCS","STARLINK-1694","2020-070N","EARTH","TEME","UTC","SGP4","2020-12-08T14:00:01.999872","15.60790203","0.00012050","53.0006","132.6418","74.9621","31.4627","0","U","46544","999","1070","-0.01321800000000","-0.01009579","0.0000000000000","6763.510","92.260","386.190","384.560","PAYLOAD","","US","2020-10-06","AFETR","","2899514","167202309","0 STARLINK-1694","1 46544U 20070N   20343.58335648 -.01009579  00000-0 -13218-1 0  9995","2 46544  53.0006 132.6418 0001205  74.9621  31.4627 15.60790203 10705"
"2.0","GENERATED VIA SPACE-TRACK.ORG API","2020-12-09T02:27:26","18 SPCS","STARLINK-1694","2020-070N","EARTH","TEME","UTC","SGP4","2020-12-08T18:00:00.999648","15.60424164","0.00010810","53.0007","131.8314","81.8924","241.3735","0","U","46544","999","179","-0.01341100000000","-0.01025042","0.0000000000000","6764.567","92.282","387.164","385.701","PAYLOAD","","US","2020-10-06","AFETR","","2899603","167268704","0 STARLINK-1694","1 46544U 20070N   20343.75001157 -.01025042  00000-0 -13411-1 0  9997","2 46544  53.0007 131.8314 0001081  81.8924 241.3735 15.60424164  1798"
"2.0","GENERATED VIA SPACE-TRACK.ORG API","2020-12-09T17:48:19","18 SPCS","STARLINK-1694","2020-070N","EARTH","TEME","UTC","SGP4","2020-12-08T22:00:00.999936","15.60058039","0.00012420","53.0004","131.0212","79.9393","100.0130","0","U","46544","999","182","-0.01360400000000","-0.01025239","0.0000000000000","6765.626","92.304","388.331","386.650","PAYLOAD","","US","2020-10-06","AFETR","","2900047","167322163","0 STARLINK-1694","1 46544U 20070N   20343.91667824 -.01025239  00000-0 -13604-1 0  9996","2 46544  53.0004 131.0212 0001242  79.9393 100.0130 15.60058039  1829"
"2.0","GENERATED VIA SPACE-TRACK.ORG API","2020-12-09T16:06:10","18 SPCS","STARLINK-1694","2020-070N","EARTH","TEME","UTC","SGP4","2020-12-09T14:00:01.000224","15.58554369","0.00010690","53.0011","127.7881","82.2409","242.2379","0","U","46544","999","1086","-0.01550400000000","-0.01095868","0.0000000000000","6769.977","92.393","392.565","391.118","PAYLOAD","","US","2020-10-06","AFETR","","2900019","167300491","0 STARLINK-1694","1 46544U 20070N   20344.58334491 -.01095868  00000-0 -15504-1 0  9997","2 46544  53.0011 127.7881 0001069  82.2409 242.2379 15.58554369 10865"
"2.0","GENERATED VIA SPACE-TRACK.ORG API","2020-12-09T22:56:10","18 SPCS","STARLINK-1694","2020-070N","EARTH","TEME","UTC","SGP4","2020-12-09T17:11:29.565888","15.61373967","0.00025160","52.9999","127.0927","82.5695","277.5603","0","U","46544","999","1088","0.00019359000000","0.00016310","0.0000000000000","6761.824","92.226","385.390","381.988","PAYLOAD","","US","2020-10-06","AFETR","","2900220","167347913","0 STARLINK-1694","1 46544U 20070N   20344.71631442  .00016310  00000-0  19359-3 0  9994","2 46544  52.9999 127.0927 0002516  82.5695 277.5603 15.61373967 10880"
"2.0","GENERATED VIA SPACE-TRACK.ORG API","2020-12-10T05:43:41","18 SPCS","STARLINK-1694","2020-070N","EARTH","TEME","UTC","SGP4","2020-12-09T21:47:59.904672","15.61411815","0.00012890","52.9981","126.1568","92.1440","267.9719","0","U","46544","999","1090","0.00013037000000","0.00010821","0.0000000000000","6761.715","92.224","384.451","382.708","PAYLOAD","","US","2020-10-06","AFETR","","2900243","167369640","0 STARLINK-1694","1 46544U 20070N   20344.90833223  .00010821  00000-0  13037-3 0  9994","2 46544  52.9981 126.1568 0001289  92.1440 267.9719 15.61411815 10902"
"2.0","GENERATED VIA SPACE-TRACK.ORG API","2020-12-10T06:56:10","18 SPCS","STARLINK-1694","2020-070N","EARTH","TEME","UTC","SGP4","2020-12-09T21:48:00.056736","15.61419049","0.00014090","52.9976","126.1575","100.8810","259.2361","0","U","46544","999","1091","0.00058316000000","0.00050490","0.0000000000000","6761.694","92.223","384.511","382.606","PAYLOAD","","US","2020-10-06","AFETR","","2900360","167393473","0 STARLINK-1694","1 46544U 20070N   20344.90833399  .00050490  00000-0  58316-3 0  9993","2 46544  52.9976 126.1575 0001409 100.8810 259.2361 15.61419049 10911"
"2.0","GENERATED VIA SPACE-TRACK.ORG API","2020-12-10T17:12:53","18 SPCS","STARLINK-1694","2020-070N","EARTH","TEME","UTC","SGP4","2020-12-09T21:48:00.056736","15.61419049","0.00014090","52.9976","126.1575","100.8810","259.2361","0","U","46544","999","1090","0.00058316000000","0.00050490","0.0000000000000","6761.694","92.223","384.511","382.606","PAYLOAD","","US","2020-10-06","AFETR","","2900598","167419772","0 STARLINK-1694","1 46544U 20070N   20344.90833399  .00050490  00000-0  58316-3 0  9993","2 46544  52.9976 126.1575 0001409 100.8810 259.2361 15.61419049 10900"
"2.0","GENERATED VIA SPACE-TRACK.ORG API","2020-12-10T17:17:55","18 SPCS","STARLINK-1694","2020-070N","EARTH","TEME","UTC","SGP4","2020-12-10T13:09:41.621760","15.61458953","0.00014500","52.9977","123.0291","93.8605","266.2573","0","U","46544","999","1100","0.00049067000000","0.00042422","0.0000000000000","6761.579","92.221","384.424","382.463","PAYLOAD","","US","2020-10-06","AFETR","","2900599","167441403","0 STARLINK-1694","1 46544U 20070N   20345.54839840 +.00042422 +00000-0 +49067-3 0  9990","2 46544 052.9977 123.0291 0001450 093.8605 266.2573 15.61458953011003"
"2.0","GENERATED VIA SPACE-TRACK.ORG API","2020-12-10T21:36:10","18 SPCS","STARLINK-1694","2020-070N","EARTH","TEME","UTC","SGP4","2020-12-10T19:18:21.979584","15.61462257","0.00013710","52.9973","121.7777","102.3447","257.7719","0","U","46544","999","1105","0.00038363000000","0.00033019","0.0000000000000","6761.569","92.221","384.361","382.507","PAYLOAD","","US","2020-10-06","AFETR","","2900767","167445311","0 STARLINK-1694","1 46544U 20070N   20345.80442106  .00033019  00000-0  38363-3 0  9993","2 46544  52.9973 121.7777 0001371 102.3447 257.7719 15.61462257 11059"
"2.0","GENERATED VIA SPACE-TRACK.ORG API","2020-12-11T06:46:10","18 SPCS","STARLINK-1694","2020-070N","EARTH","TEME","UTC","SGP4","2020-12-11T06:00:00.999648","15.61450918","0.00012960","52.9973","119.6003","103.2029","243.1725","0","U","46544","999","1112","0.00077127000000","0.00067169","0.0000000000000","6761.602","92.221","384.343","382.590","PAYLOAD","","US","2020-10-06","AFETR","","2900984","167492867","0 STARLINK-1694","1 46544U 20070N   20346.25001157  .00067169  00000-0  77127-3 0  9994","2 46544  52.9973 119.6003 0001296 103.2029 243.1725 15.61450918 11124"
"2.0","GENERATED VIA SPACE-TRACK.ORG API","2020-12-11T20:18:04","18 SPCS","STARLINK-1694","2020-070N","EARTH","TEME","UTC","SGP4","2020-12-11T06:00:00.999648","15.61450918","0.00012960","52.9973","119.6003","103.2029","243.1725","0","U","46544","999","182","0.00077127000000","0.00067169","0.0000000000000","6761.602","92.221","384.343","382.590","PAYLOAD","","US","2020-10-06","AFETR","","2901310","167521080","0 STARLINK-1694","1 46544U 20070N   20346.25001157  .00067169  00000-0  77127-3 0  9994","2 46544  52.9973 119.6003 0001296 103.2029 243.1725 15.61450918  1820"
"2.0","GENERATED VIA SPACE-TRACK.ORG API","2020-12-11T15:16:09","18 SPCS","STARLINK-1694","2020-070N","EARTH","TEME","UTC","SGP4","2020-12-11T14:00:01.999872","15.60961605","0.00012650","52.9964","117.9725","111.4824","309.5461","0","U","46544","999","1117","-0.01251000000000","-0.00966418","0.0000000000000","6763.015","92.250","385.735","384.024","PAYLOAD","","US","2020-10-06","AFETR","","2901285","167499308","0 STARLINK-1694","1 46544U 20070N   20346.58335648 -.00966418  00000-0 -12510-1 0  9995","2 46544  52.9964 117.9725 0001265 111.4824 309.5461 15.60961605 11174"
"2.0","GENERATED VIA SPACE-TRACK.ORG API","2020-12-11T22:46:10","18 SPCS","STARLINK-1694","2020-070N","EARTH","TEME","UTC","SGP4","2020-12-11T22:00:01.999584","15.60249175","0.00011460","52.9982","116.3494","93.9156","40.9490","0","U","46544","999","1122","-0.01406200000000","-0.01063818","0.0000000000000","6765.073","92.292","387.713","386.163","PAYLOAD","","US","2020-10-06","AFETR","","2901470","167546138","0 STARLINK-1694","1 46544U 20070N   20346.91668981 -.01063818  00000-0 -14062-1 0  9998","2 46544  52.9982 116.3494 0001146  93.9156  40.9490 15.60249175 11225"
"2.0","GENERATED VIA SPACE-TRACK.ORG API","2020-12-12T05:34:55","18 SPCS","STARLINK-1694","2020-070N","EARTH","TEME","UTC","SGP4","2020-12-11T22:00:01.999584","15.60249175","0.00011460","52.9982","116.3494","93.9156","40.9490","0","U","46544","999","177","-0.01406200000000","-0.01063818","0.0000000000000","6765.073","92.292","387.713","386.163","PAYLOAD","","US","2020-10-06","AFETR","","2901490","167568223","0 STARLINK-1694","1 46544U 20070N   20346.91668981 -.01063818  00000-0 -14062-1 0  9998","2 46544  52.9982 116.3494 0001146  93.9156  40.9490 15.60249175  1774"
"2.0","GENERATED VIA SPACE-TRACK.ORG API","2020-12-12T20:38:44","18 SPCS","STARLINK-1694","2020-070N","EARTH","TEME","UTC","SGP4","2020-12-12T06:00:00.999648","15.59427691","0.00012730","52.9991","114.7233","89.3699","118.3879","0","U","46544","999","177","-0.01387200000000","-0.01020838","0.0000000000000","6767.449","92.341","390.175","388.452","PAYLOAD","","US","2020-10-06","AFETR","","2901853","167619596","0 STARLINK-1694","1 46544U 20070N   20347.25001157 -.01020838  00000-0 -13872-1 0  9995","2 46544  52.9991 114.7233 0001273  89.3699 118.3879 15.59427691  1779"
